[{"OBJECT_NAME":"STARLINK-30961","OBJECT_ID":"2023-183J","EPOCH":"2026-03-09T23:38:37.717728","MEAN_MOTION":15.26734072,"ECCENTRICITY":0.00017368,"INCLINATION":43.0029,"RA_OF_ASC_NODE":39.5902,"ARG_OF_PERICENTER":271.5992,"MEAN_ANOMALY":88.466,"EPHEMERIS_TYPE":0,"CLASSIFICATION_TYPE":"U","NORAD_CAT_ID":58445,"ELEMENT_SET_NO":999,"REV_AT_EPOCH":12678,"BSTAR":-2.2357482e-5,"MEAN_MOTION_DOT":-8.59e-6,"MEAN_MOTION_DDOT":0},{"OBJECT_NAME":"FENGYUN 1C DEB","OBJECT_ID":"1999-025AQG","EPOCH":"2026-03-09T10:43:06.043872","MEAN_MOTION":15.25746961,"ECCENTRICITY":0.00178142,"INCLINATION":98.9311,"RA_OF_ASC_NODE":250.2123,"ARG_OF_PERICENTER":328.3876,"MEAN_ANOMALY":31.6286,"EPHEMERIS_TYPE":0,"CLASSIFICATION_TYPE":"U","NORAD_CAT_ID":30674,"ELEMENT_SET_NO":999,"REV_AT_EPOCH":98658,"BSTAR":0.015201752,"MEAN_MOTION_DOT":0.00411052,"MEAN_MOTION_DDOT":0}]
